0 SES 5
1 38652U 12036A   13282.27080148  .00000021  00000-0  10000-3 0  2903
2 38652 000.0747 267.3840 0002080 279.8810 293.2732 01.00271350  4606
0 SES 5
1 38652U 12036A   13284.16566837  .00000014  00000-0  10000-3 0  2910
2 38652 000.0707 267.2976 0002072 279.7425 257.5119 01.00271558  4627
0 SES 5
1 38652U 12036A   13286.19421964  .00000010  00000-0  10000-3 0  2934
2 38652 000.0682 266.9682 0002087 280.8169 269.0426 01.00271993  4647
0 SES 5
1 38652U 12036A   13287.26077801  .00000009  00000-0  10000-3 0  2949
2 38652 000.0685 266.9455 0002081 283.8553 291.0404 01.00272308  4655
0 SES 5
1 38652U 12036A   13288.77399537  .00000009  00000-0  10000-3 0  2950
2 38652 000.0660 266.9416 0002044 285.2752 115.8764 01.00272674  4660
0 SES 5
1 38652U 12036A   13290.06659086  .00000011  00000-0  10000-3 0  2967
2 38652 000.0639 267.1516 0002115 282.5580 224.9943 01.00272891  4682
0 SES 5
1 38652U 12036A   13292.26287587  .00000016  00000-0  10000-3 0  2970
2 38652 000.0659 265.5437 0002411 299.4852 282.4925 01.00272373  4703
0 SES 5
1 38652U 12036A   13293.28558443  .00000018  00000-0  10000-3 0  2988
2 38652 000.0659 265.7437 0002448 304.4655 286.4990 01.00272826  4713
0 SES 5
1 38652U 12036A   13295.18017663  .00000021  00000-0  10000-3 0  2998
2 38652 000.0640 266.2578 0002497 306.3792 248.0021 01.00273460  4738
